OBJECT_NAME,OBJECT_ID,EPOCH,MEAN_MOTION,ECCENTRICITY,INCLINATION,RA_OF_ASC_NODE,ARG_OF_PERICENTER,MEAN_ANOMALY,EPHEMERIS_TYPE,CLASSIFICATION_TYPE,NORAD_CAT_ID,ELEMENT_SET_NO,REV_AT_EPOCH,BSTAR,MEAN_MOTION_DOT,MEAN_MOTION_DDOT
SAUDISAT 1C (SO-50),2002-058C,2026-07-16T13:19:30.765216,14.83099820,.00744826,64.5519,38.1171,257.0171,102.2611,0,U,27607,999,26881,.59872004E-4,.354E-5,0
SAUDISAT 2,2004-025F,2026-07-16T11:55:00.427872,14.56698633,.00241467,98.5521,198.2376,204.0882,155.9188,0,U,28371,999,17001,.30733325E-4,.88E-6,0
SAUDISAT 3,2007-012B,2026-07-16T08:43:25.000320,14.71440619,.00156583,98.1467,147.7857,131.2431,229.0127,0,U,31118,999,3203,.23298735E-4,.94E-6,0
PISAT,2016-059B,2026-07-16T12:01:56.966592,14.69031004,.00304793,97.8192,196.6965,110.8312,249.6163,0,U,41784,999,52404,.81373488E-4,.433E-5,0
FLYING LAPTOP,2017-042G,2026-07-16T15:30:46.060416,15.01319059,.00196512,97.4811,352.0719,27.8785,332.3488,0,U,42831,999,49087,.16670525E-3,.2096E-4,0
SALSAT,2020-068K,2026-07-16T05:58:34.584960,15.30180346,.00093214,97.8856,202.0925,188.9749,171.1325,0,U,46495,999,31980,.1336874E-3,.3822E-4,0
